*******************************************************************************
JPL/HORIZONS                 144897 (2004 UX10)            2013-Dec-01 19:31:10
Rec #:144897 (+COV)   Soln.date: 2013-Aug-07_10:20:42     # obs: 83 (1953-2007)
 
FK5/J2000.0 helio. ecliptic osc. elements (au, days, deg., period=Julian yrs): 
 
  EPOCH=  2452511.5 ! 2002-Aug-25.00 (CT)          Residual RMS= .43649        
   EC= .03923650007765116  QR= 37.51453341540258   TP= 2434784.5641203648      
   OM= 148.044476497182    W=  155.5553545815274   IN= 9.542514289599563       
   A= 39.04658474060952    MA= 71.60826759927733   ADIST= 40.57863606581645    
   PER= 243.99605          N= .004039517           ANGMOM= .107408441          
   DAN= 40.43063           DDN= 37.64193           L= 303.8992051              
   B= 3.9336838            MOID= 36.50159836       TP= 1954-Feb-11.0641203648  
 
Asteroid physical parameters (km, seconds, rotational period in hours):        
   GM= n.a.                RAD= n.a.               ROTPER= 5.68                
   H= 4.5                  G= .150                 B-V= n.a.                   
                           ALBEDO= n.a.            STYP= n.a.                  
 
ASTEROID comments: 
1: soln ref.= JPL#1, OCC=3
2: source=ORB
*******************************************************************************
 

 

*******************************************************************************
Ephemeris / WWW_USER Sun Dec  1 19:31:10 2013 Pasadena, USA      / Horizons    
*******************************************************************************
Target body name: 144897 (2004 UX10)              {source: JPL#1}
Center body name: Earth (399)                     {source: DE-0431LE-0431}
Center-site name: San Pedro Martir
*******************************************************************************
Start time      : A.D. 2013-Jan-01 00:00:00.0000 UT      
Stop  time      : A.D. 2014-Dec-31 00:00:00.0000 UT      
Step-size       : 1440 minutes
*******************************************************************************
Target pole/equ : No model available
Target radii    : (unavailable)                                                
Center geodetic : 244.536700,31.0434585,2.8281109 {E-lon(deg),Lat(deg),Alt(km)}
Center cylindric: 244.536700,5471.93108,3271.4810 {E-lon(deg),Dxy(km),Dz(km)}
Center pole/equ : High-precision EOP model        {East-longitude +}
Center radii    : 6378.1 x 6378.1 x 6356.8 km     {Equator, meridian, pole}    
Target primary  : Sun
Vis. interferer : MOON (R_eq= 1737.400) km        {source: DE-0431LE-0431}
Rel. light bend : Sun, EARTH                      {source: DE-0431LE-0431}
Rel. lght bnd GM: 1.3271E+11, 3.9860E+05 km^3/s^2                              
Small-body perts: Yes                             {source: SB431-BIG16}
Atmos refraction: NO (AIRLESS)
RA format       : DEG
Time format     : BOTH
EOP file        : eop.131128.p140219                                           
EOP coverage    : DATA-BASED 1962-JAN-20 TO 2013-NOV-28. PREDICTS-> 2014-FEB-18
Units conversion: 1 au= 149597870.700 km, c= 299792.458 km/s, 1 day= 86400.0 s 
Table cut-offs 1: Elevation (-90.0deg=NO ),Airmass (>38.000=NO), Daylight (NO )
Table cut-offs 2: Solar Elongation (  0.0,180.0=NO ),Local Hour Angle( 0.0=NO )
*******************************************************************************
Initial FK5/J2000.0 heliocentric ecliptic osculating elements (au, days, deg.):
  EPOCH=  2452511.5 ! 2002-Aug-25.00 (CT)          Residual RMS= .43649        
   EC= .03923650007765116  QR= 37.51453341540258   TP= 2434784.5641203648      
   OM= 148.044476497182    W=  155.5553545815274   IN= 9.542514289599563       
Asteroid physical parameters (km, seconds, rotational period in hours):        
   GM= n.a.                RAD= n.a.               ROTPER= 5.68                
   H= 4.5                  G= .150                 B-V= n.a.                   
                           ALBEDO= n.a.            STYP= n.a.                  
************************************************************************************************************
 Date__(UT)__HR:MN Date_________JDUT     R.A._(J2000.0)_DEC. dRA*cosD d(DEC)/dt            delta      deldot
************************************************************************************************************
$$SOE
 2013-Feb-21 00:00 2456344.500000000 *m   34.30952   4.53988 2.037735  1.224139 39.5175776083843  26.3617551
 2013-Feb-22 00:00 2456345.500000000 *m   34.32366   4.54810 2.091645  1.237448 39.5327268131486  26.1198724
 2013-Feb-23 00:00 2456346.500000000 *m   34.33815   4.55640 2.144991  1.250418 39.5477304382621  25.8710879
 2013-Feb-24 00:00 2456347.500000000 *m   34.35300   4.56479 2.197774  1.263052 39.5625845432794  25.6155421
 2013-Feb-25 00:00 2456348.500000000 *    34.36820   4.57327 2.249993  1.275351 39.5772852655336  25.3533588
 2013-Feb-26 00:00 2456349.500000000 *    34.38374   4.58182 2.301654  1.287317 39.5918288081112  25.0846365
 2013-Feb-27 00:00 2456350.500000000 *    34.39963   4.59046 2.352759  1.298950 39.6062114227998  24.8094404
 2013-Feb-28 00:00 2456351.500000000 *    34.41586   4.59917 2.403315  1.310252 39.6204293890293  24.5277968
 2013-Mar-01 00:00 2456352.500000000 *    34.43242   4.60796 2.453324  1.321222 39.6344789911772  24.2396933
 2013-Mar-02 00:00 2456353.500000000 *    34.44932   4.61682 2.502786  1.331857 39.6483564974663  23.9450840
 2013-Mar-03 00:00 2456354.500000000 *    34.46654   4.62575 2.551695  1.342153 39.6620581436590  23.6439007
 2013-Mar-04 00:00 2456355.500000000 *    34.48409   4.63475 2.600041  1.352104 39.6755801238762  23.3360663
 2013-Mar-05 00:00 2456356.500000000 *    34.50196   4.64381 2.647805  1.361704 39.6889185896373  23.0215090
 2013-Mar-06 00:00 2456357.500000000 *    34.52014   4.65294 2.694967  1.370945 39.7020696571851  22.7001770
 2013-Mar-07 00:00 2456358.500000000 *    34.53864   4.66213 2.741497  1.379818 39.7150294226044  22.3720508
 2013-Mar-08 00:00 2456359.500000000 *    34.55744   4.67138 2.787366  1.388315 39.7277939839558  22.0371548
 2013-Mar-09 00:00 2456360.500000000 *    34.57655   4.68068 2.832539  1.396428 39.7403594691883  21.6955657
 2013-Mar-10 00:00 2456361.500000000 *    34.59595   4.69004 2.876983  1.404150 39.7527220676772  21.3474160
 2013-Mar-11 00:00 2456362.500000000 *m   34.61565   4.69945 2.920667  1.411477 39.7648780620581  20.9928914
 2013-Mar-12 00:00 2456363.500000000 *m   34.63564   4.70891 2.963564  1.418406 39.7768238562758  20.6322207
 2013-Mar-13 00:00 2456364.500000000 *m   34.65591   4.71841 3.005652  1.424936 39.7885559961454  20.2656602
 2013-Mar-14 00:00 2456365.500000000 *m   34.67645   4.72795 3.046915  1.431068 39.8000711803816  19.8934768
 2013-Mar-15 00:00 2456366.500000000 *m   34.69727   4.73754 3.087342  1.436805 39.8113662623555  19.5159337
 2013-Mar-16 00:00 2456367.500000000 *m   34.71835   4.74716 3.126928  1.442149 39.8224382447943  19.1332804
 2013-Mar-17 00:00 2456368.500000000 *m   34.73969   4.75682 3.165667  1.447105 39.8332842705617  18.7457490
 2013-Mar-18 00:00 2456369.500000000 *m   34.76129   4.76651 3.203558  1.451676 39.8439016124811  18.3535546
 2013-Mar-19 00:00 2456370.500000000 *m   34.78314   4.77623 3.240600  1.455864 39.8542876643034  17.9568982
 2013-Mar-20 00:00 2456371.500000000 *m   34.80522   4.78598 3.276794  1.459675 39.8644399338558  17.5559712
 2013-Mar-21 00:00 2456372.500000000 *m   34.82755   4.79575 3.312141  1.463112 39.8743560384508  17.1509587
 2013-Mar-22 00:00 2456373.500000000 *m   34.85011   4.80554 3.346644  1.466178 39.8840337018740  16.7420411
 2013-Mar-23 00:00 2456374.500000000 *m   34.87289   4.81536 3.380305  1.468877 39.8934707516725  16.3293936
 2013-Mar-24 00:00 2456375.500000000 *m   34.89589   4.82519 3.413132  1.471215 39.9026651149979  15.9131820
 2013-Mar-25 00:00 2456376.500000000 *m   34.91911   4.83504 3.445134  1.473196 39.9116148109711  15.4935542
 2013-Mar-26 00:00 2456377.500000000 *    34.94253   4.84490 3.476323  1.474824 39.9203179376462  15.0706306
 2013-Mar-27 00:00 2456378.500000000 *    34.96616   4.85477 3.506711  1.476104 39.9287726524648  14.6444918
 2013-Mar-28 00:00 2456379.500000000 *    34.98998   4.86464 3.536311  1.477039 39.9369771468268  14.2151708
 2013-Mar-29 00:00 2456380.500000000 *    35.01400   4.87453 3.565134  1.477631 39.9449296178291  13.7826521
 2013-Mar-30 00:00 2456381.500000000 *    35.03821   4.88442 3.593185  1.477878 39.9526282424187  13.3468808
 2013-Mar-31 00:00 2456382.500000000 *    35.06260   4.89430 3.620461  1.477778 39.9600711598826  12.9077823
 2013-Apr-01 00:00 2456383.500000000 *    35.08716   4.90419 3.646952  1.477327 39.9672564669808  12.4652852
 2013-Apr-02 00:00 2456384.500000000 *    35.11190   4.91407 3.672643  1.476520 39.9741822266973  12.0193444
 2013-Apr-03 00:00 2456385.500000000 *    35.13680   4.92395 3.697511  1.475350 39.9808464882001  11.5699564
 2013-Apr-04 00:00 2456386.500000000 *    35.16186   4.93382 3.721532  1.473813 39.9872473137037  11.1171677
 2013-Apr-05 00:00 2456387.500000000 *    35.18708   4.94368 3.744679  1.471902 39.9933828078896  10.6610760
 2013-Apr-06 00:00 2456388.500000000 *    35.21245   4.95352 3.766928  1.469615 39.9992511466440  10.2018268
 2013-Apr-07 00:00 2456389.500000000 *    35.23795   4.96335 3.788255  1.466949 40.0048506031055   9.7396075
 2013-Apr-08 00:00 2456390.500000000 *    35.26360   4.97316 3.808640  1.463904 40.0101795697858   9.2746402
 2013-Apr-09 00:00 2456391.500000000 *m   35.28937   4.98295 3.828067  1.460481 40.0152365758242   8.8071718
 2013-Apr-10 00:00 2456392.500000000 *m   35.31527   4.99271 3.846525  1.456682 40.0200202985937   8.3374644
 2013-Apr-11 00:00 2456393.500000000 *m   35.34128   5.00245 3.864006  1.452510 40.0245295692363   7.8657843
 2013-Apr-12 00:00 2456394.500000000 *m   35.36740   5.01216 3.880508  1.447972 40.0287633723654   7.3923929
